CSS (TIANHE)            
1 48274U 21035A   23351.73061681  .00018952  00000+0  20067-3 0  9994
2 48274  41.4701 117.8845 0006225 356.7429   3.3369 15.63663143150535
